start=new Date('2022-08-30T00:00:00.000Z').valueOf();
sats=[{"EPHEMERIS_TYPE":"0","CENTER_NAME":"EARTH","MEAN_ELEMENT_THEORY":"SGP4","REF_FRAME":"TEME","ELEMENT_SET_NO":"999","SITE":"AFETR","DECAY_DATE":null,"MEAN_MOTION":"15.06399646","TLE_LINE1":"1 46557U 20070AB  22241.20054722 -.00001260  00000-0 -65705-4 0  9997","INCLINATION":"53.0535","FILE":"3550737","RCS_SIZE":"LARGE","OBJECT_NAME":"STARLINK-1679","ARG_OF_PERICENTER":"75.2889","MEAN_ANOMALY":"284.8264","GP_ID":"211252355","ECCENTRICITY":"0.00014800","TLE_LINE2":"2 46557  53.0535 185.8811 0001480  75.2889 284.8264 15.06399646105519","OBJECT_ID":"2020-070AB","PERIAPSIS":"546.190","SEMIMAJOR_AXIS":"6925.350","MEAN_MOTION_DOT":"-0.00001260","REV_AT_EPOCH":"10551","BSTAR":"-0.00006570500000","OBJECT_TYPE":"PAYLOAD","NORAD_CAT_ID":"46557","RA_OF_ASC_NODE":"185.8811","LAUNCH_DATE":"2020-10-06","EPOCH":"2022-08-29T04:48:47.279808","MEAN_MOTION_DDOT":"0.0000000000000","APOAPSIS":"548.240","CLASSIFICATION_TYPE":"U","TIME_SYSTEM":"UTC","PERIOD":"95.592","COUNTRY_CODE":"US"},{"INCLINATION":"53.0551","FILE":"3550737","EPHEMERIS_TYPE":"0","CENTER_NAME":"EARTH","MEAN_ELEMENT_THEORY":"SGP4","REF_FRAME":"TEME","ELEMENT_SET_NO":"999","SITE":"AFETR","MEAN_MOTION":"15.06406129","DECAY_DATE":null,"TLE_LINE1":"1 46558U 20070AC  22241.20792331 -.00000919  00000-0 -42809-4 0  9993","GP_ID":"211252563","ECCENTRICITY":"0.00013710","TLE_LINE2":"2 46558  53.0551 185.8362 0001371  67.6985 292.4150 15.06406129105480","RCS_SIZE":"LARGE","OBJECT_NAME":"STARLINK-1680","ARG_OF_PERICENTER":"67.6985","MEAN_ANOMALY":"292.4150","OBJECT_TYPE":"PAYLOAD","NORAD_CAT_ID":"46558","EPOCH":"2022-08-29T04:59:24.573984","LAUNCH_DATE":"2020-10-06","RA_OF_ASC_NODE":"185.8362","MEAN_MOTION_DDOT":"0.0000000000000","OBJECT_ID":"2020-070AC","PERIAPSIS":"546.245","SEMIMAJOR_AXIS":"6925.330","MEAN_MOTION_DOT":"-0.00000919","BSTAR":"-0.00004280900000","REV_AT_EPOCH":"10548","TIME_SYSTEM":"UTC","PERIOD":"95.592","COUNTRY_CODE":"US","APOAPSIS":"548.144","CLASSIFICATION_TYPE":"U"},{"APOAPSIS":"548.368","CLASSIFICATION_TYPE":"U","TIME_SYSTEM":"UTC","PERIOD":"95.592","COUNTRY_CODE":"US","OBJECT_ID":"2020-070AD","PERIAPSIS":"546.093","SEMIMAJOR_AXIS":"6925.365","MEAN_MOTION_DOT":"-0.00000770","BSTAR":"-0.00003280700000","REV_AT_EPOCH":"10576","OBJECT_TYPE":"PAYLOAD","NORAD_CAT_ID":"46559","EPOCH":"2022-08-29T12:39:09.321408","LAUNCH_DATE":"2020-10-06","RA_OF_ASC_NODE":"169.4015","MEAN_MOTION_DDOT":"0.0000000000000","RCS_SIZE":"LARGE","OBJECT_NAME":"STARLINK-1681","ARG_OF_PERICENTER":"73.8677","MEAN_ANOMALY":"286.2493","GP_ID":"211251356","ECCENTRICITY":"0.00016420","TLE_LINE2":"2 46559  53.0549 169.4015 0001642  73.8677 286.2493 15.06394514105765","EPHEMERIS_TYPE":"0","CENTER_NAME":"EARTH","MEAN_ELEMENT_THEORY":"SGP4","REF_FRAME":"TEME","ELEMENT_SET_NO":"999","SITE":"AFETR","DECAY_DATE":null,"MEAN_MOTION":"15.06394514","TLE_LINE1":"1 46559U 20070AD  22241.52719122 -.00000770  00000-0 -32807-4 0  9998","INCLINATION":"53.0549","FILE":"3550737"},{"MEAN_MOTION_DDOT":"0.0000000000000","LAUNCH_DATE":"2020-10-06","EPOCH":"2022-08-29T05:20:38.386464","RA_OF_ASC_NODE":"185.7713","NORAD_CAT_ID":"46560","OBJECT_TYPE":"PAYLOAD","MEAN_MOTION_DOT":"0.00002453","BSTAR":"0.00018355000000","REV_AT_EPOCH":"10551","PERIAPSIS":"545.801","SEMIMAJOR_AXIS":"6925.347","OBJECT_ID":"2020-070AE","COUNTRY_CODE":"US","PERIOD":"95.592","TIME_SYSTEM":"UTC","CLASSIFICATION_TYPE":"U","APOAPSIS":"548.623","FILE":"3550737","INCLINATION":"53.0560","MEAN_MOTION":"15.06400485","DECAY_DATE":null,"TLE_LINE1":"1 46560U 20070AE  22241.22266651  .00002453  00000-0  18355-3 0  9990","SITE":"AFETR","MEAN_ELEMENT_THEORY":"SGP4","REF_FRAME":"TEME","ELEMENT_SET_NO":"999","CENTER_NAME":"EARTH","EPHEMERIS_TYPE":"0","TLE_LINE2":"2 46560  53.0560 185.7713 0002038  62.8267 297.2930 15.06400485105515","GP_ID":"211252105","ECCENTRICITY":"0.00020380","OBJECT_NAME":"STARLINK-1706","MEAN_ANOMALY":"297.2930","ARG_OF_PERICENTER":"62.8267","RCS_SIZE":"LARGE"},{"MEAN_ELEMENT_THEORY":"SGP4","REF_FRAME":"TEME","ELEMENT_SET_NO":"999","EPHEMERIS_TYPE":"0","CENTER_NAME":"EARTH","DECAY_DATE":null,"MEAN_MOTION":"15.06400887","TLE_LINE1":"1 46561U 20070AF  22241.83727473  .00001628  00000-0  12815-3 0  9990","SITE":"AFETR","FILE":"3551093","INCLINATION":"53.0531","RCS_SIZE":"LARGE","OBJECT_NAME":"STARLINK-1709","MEAN_ANOMALY":"292.3383","ARG_OF_PERICENTER":"67.7813","TLE_LINE2":"2 46561  53.0531 183.0335 0001953  67.7813 292.3383 15.06400887105605","GP_ID":"211284186","ECCENTRICITY":"0.00019530","OBJECT_ID":"2020-070AF","MEAN_MOTION_DOT":"0.00001628","BSTAR":"0.00012815000000","REV_AT_EPOCH":"10560","PERIAPSIS":"545.858","SEMIMAJOR_AXIS":"6925.346","NORAD_CAT_ID":"46561","OBJECT_TYPE":"PAYLOAD","MEAN_MOTION_DDOT":"0.0000000000000","LAUNCH_DATE":"2020-10-06","EPOCH":"2022-08-29T20:05:40.536672","RA_OF_ASC_NODE":"183.0335","APOAPSIS":"548.563","CLASSIFICATION_TYPE":"U","TIME_SYSTEM":"UTC","COUNTRY_CODE":"US","PERIOD":"95.592"},{"SITE":"AFETR","DECAY_DATE":null,"MEAN_MOTION":"15.06395481","TLE_LINE1":"1 46562U 20070AG  22241.57050350 -.00000586  00000-0 -20412-4 0  9992","CENTER_NAME":"EARTH","EPHEMERIS_TYPE":"0","MEAN_ELEMENT_THEORY":"SGP4","REF_FRAME":"TEME","ELEMENT_SET_NO":"999","INCLINATION":"53.0536","FILE":"3551093","OBJECT_NAME":"STARLINK-1714","MEAN_ANOMALY":"288.6666","ARG_OF_PERICENTER":"71.4501","RCS_SIZE":"LARGE","ECCENTRICITY":"0.00016380","GP_ID":"211284438","TLE_LINE2":"2 46562  53.0536 179.1937 0001638  71.4501 288.6666 15.06395481105639","PERIAPSIS":"546.093","SEMIMAJOR_AXIS":"6925.362","MEAN_MOTION_DOT":"-0.00000586","BSTAR":"-0.00002041200000","REV_AT_EPOCH":"10563","OBJECT_ID":"2020-070AG","EPOCH":"2022-08-29T13:41:31.502400","LAUNCH_DATE":"2020-10-06","RA_OF_ASC_NODE":"179.1937","MEAN_MOTION_DDOT":"0.0000000000000","OBJECT_TYPE":"PAYLOAD","NORAD_CAT_ID":"46562","CLASSIFICATION_TYPE":"U","APOAPSIS":"548.362","PERIOD":"95.592","COUNTRY_CODE":"US","TIME_SYSTEM":"UTC"},{"MEAN_ELEMENT_THEORY":"SGP4","REF_FRAME":"TEME","ELEMENT_SET_NO":"999","CENTER_NAME":"EARTH","EPHEMERIS_TYPE":"0","DECAY_DATE":null,"MEAN_MOTION":"15.06395988","TLE_LINE1":"1 46563U 20070AH  22241.55301997 -.00001101  00000-0 -55014-4 0  9997","SITE":"AFETR","FILE":"3551093","INCLINATION":"53.0551","RCS_SIZE":"LARGE","OBJECT_NAME":"STARLINK-1730","ARG_OF_PERICENTER":"62.1013","MEAN_ANOMALY":"298.0170","TLE_LINE2":"2 46563  53.0551 179.3034 0001919  62.1013 298.0170 15.06395988105631","ECCENTRICITY":"0.00019190","GP_ID":"211285188","OBJECT_ID":"2020-070AH","MEAN_MOTION_DOT":"-0.00001101","BSTAR":"-0.00005501400000","REV_AT_EPOCH":"10563","PERIAPSIS":"545.897","SEMIMAJOR_AXIS":"6925.361","NORAD_CAT_ID":"46563","OBJECT_TYPE":"PAYLOAD","MEAN_MOTION_DDOT":"0.0000000000000","RA_OF_ASC_NODE":"179.3034","LAUNCH_DATE":"2020-10-06","EPOCH":"2022-08-29T13:16:20.925408","APOAPSIS":"548.555","CLASSIFICATION_TYPE":"U","TIME_SYSTEM":"UTC","COUNTRY_CODE":"US","PERIOD":"95.592"},{"CLASSIFICATION_TYPE":"U","APOAPSIS":"548.310","PERIOD":"95.592","COUNTRY_CODE":"US","TIME_SYSTEM":"UTC","PERIAPSIS":"546.130","SEMIMAJOR_AXIS":"6925.355","MEAN_MOTION_DOT":"0.00000048","REV_AT_EPOCH":"10564","BSTAR":"0.00002211900000","OBJECT_ID":"2020-070AJ","LAUNCH_DATE":"2020-10-06","EPOCH":"2022-08-29T12:49:48.131904","RA_OF_ASC_NODE":"179.3625","MEAN_MOTION_DDOT":"0.0000000000000","NORAD_CAT_ID":"46564","OBJECT_TYPE":"PAYLOAD","OBJECT_NAME":"STARLINK-1733","ARG_OF_PERICENTER":"78.2935","MEAN_ANOMALY":"281.8231","RCS_SIZE":"LARGE","GP_ID":"211257879","ECCENTRICITY":"0.00015740","TLE_LINE2":"2 46564  53.0529 179.3625 0001574  78.2935 281.8231 15.06397977105640","SITE":"AFETR","MEAN_MOTION":"15.06397977","DECAY_DATE":null,"TLE_LINE1":"1 46564U 20070AJ  22241.53458486  .00000048  00000-0  22119-4 0  9999","CENTER_NAME":"EARTH","EPHEMERIS_TYPE":"0","MEAN_ELEMENT_THEORY":"SGP4","REF_FRAME":"TEME","ELEMENT_SET_NO":"999","INCLINATION":"53.0529","FILE":"3550738"},{"APOAPSIS":"548.555","CLASSIFICATION_TYPE":"U","TIME_SYSTEM":"UTC","PERIOD":"95.592","COUNTRY_CODE":"US","OBJECT_ID":"2020-070AK","SEMIMAJOR_AXIS":"6925.355","PERIAPSIS":"545.886","BSTAR":"0.00005938700000","REV_AT_EPOCH":"10558","MEAN_MOTION_DOT":"0.00000603","NORAD_CAT_ID":"46565","OBJECT_TYPE":"PAYLOAD","EPOCH":"2022-08-29T05:55:47.695584","LAUNCH_DATE":"2020-10-06","RA_OF_ASC_NODE":"180.6702","MEAN_MOTION_DDOT":"0.0000000000000","RCS_SIZE":"LARGE","ARG_OF_PERICENTER":"68.1328","MEAN_ANOMALY":"291.9866","OBJECT_NAME":"STARLINK-1735","GP_ID":"211252356","ECCENTRICITY":"0.00019270","TLE_LINE2":"2 46565  53.0544 180.6702 0001927  68.1328 291.9866 15.06397852105586","CENTER_NAME":"EARTH","EPHEMERIS_TYPE":"0","ELEMENT_SET_NO":"999","REF_FRAME":"TEME","MEAN_ELEMENT_THEORY":"SGP4","SITE":"AFETR","TLE_LINE1":"1 46565U 20070AK  22241.24707981  .00000603  00000-0  59387-4 0  9999","DECAY_DATE":null,"MEAN_MOTION":"15.06397852","INCLINATION":"53.0544","FILE":"3550737"},{"PERIOD":"95.592","COUNTRY_CODE":"US","TIME_SYSTEM":"UTC","CLASSIFICATION_TYPE":"U","APOAPSIS":"548.557","LAUNCH_DATE":"2020-10-06","RA_OF_ASC_NODE":"180.7227","EPOCH":"2022-08-29T05:34:34.371264","MEAN_MOTION_DDOT":"0.0000000000000","NORAD_CAT_ID":"46566","OBJECT_TYPE":"PAYLOAD","PERIAPSIS":"545.829","SEMIMAJOR_AXIS":"6925.328","MEAN_MOTION_DOT":"-0.00001693","REV_AT_EPOCH":"10526","BSTAR":"-0.00009474200000","OBJECT_ID":"2020-070AL","ECCENTRICITY":"0.00019690","GP_ID":"211223767","TLE_LINE2":"2 46566  53.0566 180.7227 0001969  77.6076 282.5133 15.06406716105263","OBJECT_NAME":"STARLINK-1740","ARG_OF_PERICENTER":"77.6076","MEAN_ANOMALY":"282.5133","RCS_SIZE":"LARGE","INCLINATION":"53.0566","FILE":"3550351","SITE":"AFETR","DECAY_DATE":null,"MEAN_MOTION":"15.06406716","TLE_LINE1":"1 46566U 20070AL  22241.23234226 -.00001693  00000-0 -94742-4 0  9992","CENTER_NAME":"EARTH","EPHEMERIS_TYPE":"0","REF_FRAME":"TEME","MEAN_ELEMENT_THEORY":"SGP4","ELEMENT_SET_NO":"999"}];
